[{"OBJECT_NAME":"STARLINK-1464","OBJECT_ID":"2020-038X","EPOCH":"2026-03-09T15:10:07.908672","MEAN_MOTION":15.44102768,"ECCENTRICITY":0.0002165,"INCLINATION":53.0521,"RA_OF_ASC_NODE":204.9004,"ARG_OF_PERICENTER":268.0966,"MEAN_ANOMALY":91.9792,"EPHEMERIS_TYPE":0,"CLASSIFICATION_TYPE":"U","NORAD_CAT_ID":45751,"ELEMENT_SET_NO":999,"REV_AT_EPOCH":31664,"BSTAR":0.0018543,"MEAN_MOTION_DOT":0.00086712,"MEAN_MOTION_DDOT":0},{"OBJECT_NAME":"KORONAS-FOTON","OBJECT_ID":"2009-003A","EPOCH":"2026-03-09T19:53:57.402240","MEAN_MOTION":15.43324779,"ECCENTRICITY":0.00113168,"INCLINATION":82.4276,"RA_OF_ASC_NODE":275.7327,"ARG_OF_PERICENTER":149.0532,"MEAN_ANOMALY":211.1384,"EPHEMERIS_TYPE":0,"CLASSIFICATION_TYPE":"U","NORAD_CAT_ID":33504,"ELEMENT_SET_NO":999,"REV_AT_EPOCH":94576,"BSTAR":0.00025164596,"MEAN_MOTION_DOT":0.00011273,"MEAN_MOTION_DDOT":0}]
